{
  "features": [
    {
      "geometry": {
        "coordinates": [
          121.45600000000054,
          25.010500022723598
        ],
        "type": "Point"
      },
      "properties": {
        "weight": 1
      },
      "type": "Feature"
    },
    {
      "geometry": {
        "coordinates": [
          121.45600000000054,
          25.010100022722842
        ],
        "type": "Point"
      },
      "properties": {
        "weight": 1
      },
      "type": "Feature"
    },
    {
      "geometry": {
        "coordinates": [
          121.45700000000053,
          25.015500022733036
        ],
        "type": "Point"
      },
      "properties": {
        "weight": 1
      },
      "type": "Feature"
    },
    {
      "geometry": {
        "coordinates": [
          121.45700000000053,
          25.0113000227251
        ],
        "type": "Point"
      },
      "properties": {
        "weight": 1
      },
      "type": "Feature"
    },
    {
      "geometry": {
        "coordinates": [
          121.45700000000053,
          25.010600022723768
        ],
        "type": "Point"
      },
      "properties": {
        "weight": 1
      },
      "type": "Feature"
    },
    {
      "geometry": {
        "coordinates": [
          121.45700000000053,
          25.009700022722086
        ],
        "type": "Point"
      },
      "properties": {
        "weight": 1
      },
      "type": "Feature"
    },
    {
      "geometry": {
        "coordinates": [
          121.45700000000053,
          25.009600022721877
        ],
        "type": "Point"
      },
      "properties": {
        "weight": 1
      },
      "type": "Feature"
    },
    {
      "geometry": {
        "coordinates": [
          121.45800000000054,
          25.008500022719815
        ],
        "type": "Point"
      },
      "properties": {
        "weight": 1
      },
      "type": "Feature"
    },
    {
      "geometry": {
        "coordinates": [
          121.45800000000054,
          25.007200022717345
        ],
        "type": "Point"
      },
      "properties": {
        "weight": 1
      },
      "type": "Feature"
    },
    {
      "geometry": {
        "coordinates": [
          121.45900000000056,
          25.007400022717718
        ],
        "type": "Point"
      },
      "properties": {
        "weight": 1
      },
      "type": "Feature"
    },
    {
      "geometry": {
        "coordinates": [
          121.45900000000056,
          25.007100022717164
        ],
        "type": "Point"
      },
      "properties": {
        "weight": 1
      },
      "type": "Feature"
    },
    {
      "geometry": {
        "coordinates": [
          121.46000000000055,
          25.01360002272944
        ],
        "type": "Point"
      },
      "properties": {
        "weight": 1
      },
      "type": "Feature"
    },
    {
      "geometry": {
        "coordinates": [
          121.46000000000055,
          25.013500022729257
        ],
        "type": "Point"
      },
      "properties": {
        "weight": 1
      },
      "type": "Feature"
    },
    {
      "geometry": {
        "coordinates": [
          121.46000000000055,
          25.01340002272907
        ],
        "type": "Point"
      },
      "properties": {
        "weight": 1
      },
      "type": "Feature"
    },
    {
      "geometry": {
        "coordinates": [
          121.46000000000055,
          25.010700022723963
        ],
        "type": "Point"
      },
      "properties": {
        "weight": 1
      },
      "type": "Feature"
    },
    {
      "geometry": {
        "coordinates": [
          121.46000000000055,
          25.010300022723214
        ],
        "type": "Point"
      },
      "properties": {
        "weight": 1
      },
      "type": "Feature"
    },
    {
      "geometry": {
        "coordinates": [
          121.46000000000055,
          25.00710002271716
        ],
        "type": "Point"
      },
      "properties": {
        "weight": 1
      },
      "type": "Feature"
    },
    {
      "geometry": {
        "coordinates": [
          121.46000000000055,
          25.006800022716597
        ],
        "type": "Point"
      },
      "properties": {
        "weight": 1
      },
      "type": "Feature"
    },
    {
      "geometry": {
        "coordinates": [
          121.46000000000055,
          25.006700022716416
        ],
        "type": "Point"
      },
      "properties": {
        "weight": 1
      },
      "type": "Feature"
    },
    {
      "geometry": {
        "coordinates": [
          121.46000000000055,
          25.00620002271546
        ],
        "type": "Point"
      },
      "properties": {
        "weight": 1
      },
      "type": "Feature"
    },
    {
      "geometry": {
        "coordinates": [
          121.46100000000055,
          25.020400022742294
        ],
        "type": "Point"
      },
      "properties": {
        "weight": 1
      },
      "type": "Feature"
    },
    {
      "geometry": {
        "coordinates": [
          121.46100000000055,
          25.01850002273871
        ],
        "type": "Point"
      },
      "properties": {
        "weight": 1
      },
      "type": "Feature"
    },
    {
      "geometry": {
        "coordinates": [
          121.46100000000055,
          25.015100022732287
        ],
        "type": "Point"
      },
      "properties": {
        "weight": 1
      },
      "type": "Feature"
    },
    {
      "geometry": {
        "coordinates": [
          121.46100000000055,
          25.006700022716405
        ],
        "type": "Point"
      },
      "properties": {
        "weight": 1
      },
      "type": "Feature"
    },
    {
      "geometry": {
        "coordinates": [
          121.46200000000054,
          25.00960002272188
        ],
        "type": "Point"
      },
      "properties": {
        "weight": 1
      },
      "type": "Feature"
    },
    {
      "geometry": {
        "coordinates": [
          121.46200000000054,
          25.009100022720943
        ],
        "type": "Point"
      },
      "properties": {
        "weight": 1
      },
      "type": "Feature"
    },
    {
      "geometry": {
        "coordinates": [
          121.46200000000054,
          25.007200022717342
        ],
        "type": "Point"
      },
      "properties": {
        "weight": 1
      },
      "type": "Feature"
    },
    {
      "geometry": {
        "coordinates": [
          121.46200000000054,
          25.007100022717164
        ],
        "type": "Point"
      },
      "properties": {
        "weight": 1
      },
      "type": "Feature"
    },
    {
      "geometry": {
        "coordinates": [
          121.46200000000054,
          25.00680002271659
        ],
        "type": "Point"
      },
      "properties": {
        "weight": 1
      },
      "type": "Feature"
    },
    {
      "geometry": {
        "coordinates": [
          121.46300000000056,
          25.020800022743064
        ],
        "type": "Point"
      },
      "properties": {
        "weight": 1
      },
      "type": "Feature"
    },
    {
      "geometry": {
        "coordinates": [
          121.46300000000055,
          25.020300022742095
        ],
        "type": "Point"
      },
      "properties": {
        "weight": 1
      },
      "type": "Feature"
    },
    {
      "geometry": {
        "coordinates": [
          121.46300000000055,
          25.01860002273889
        ],
        "type": "Point"
      },
      "properties": {
        "weight": 1
      },
      "type": "Feature"
    },
    {
      "geometry": {
        "coordinates": [
          121.46300000000055,
          25.01000002272265
        ],
        "type": "Point"
      },
      "properties": {
        "weight": 1
      },
      "type": "Feature"
    },
    {
      "geometry": {
        "coordinates": [
          121.46300000000055,
          25.00620002271547
        ],
        "type": "Point"
      },
      "properties": {
        "weight": 1
      },
      "type": "Feature"
    },
    {
      "geometry": {
        "coordinates": [
          121.46300000000055,
          25.005500022714134
        ],
        "type": "Point"
      },
      "properties": {
        "weight": 1
      },
      "type": "Feature"
    },
    {
      "geometry": {
        "coordinates": [
          121.46400000000052,
          25.007700022718293
        ],
        "type": "Point"
      },
      "properties": {
        "weight": 1
      },
      "type": "Feature"
    },
    {
      "geometry": {
        "coordinates": [
          121.46400000000052,
          25.007500022717924
        ],
        "type": "Point"
      },
      "properties": {
        "weight": 1
      },
      "type": "Feature"
    },
    {
      "geometry": {
        "coordinates": [
          121.46400000000052,
          25.007400022717718
        ],
        "type": "Point"
      },
      "properties": {
        "weight": 1
      },
      "type": "Feature"
    },
    {
      "geometry": {
        "coordinates": [
          121.46400000000052,
          25.00730002271754
        ],
        "type": "Point"
      },
      "properties": {
        "weight": 1
      },
      "type": "Feature"
    },
    {
      "geometry": {
        "coordinates": [
          121.46400000000052,
          25.00710002271716
        ],
        "type": "Point"
      },
      "properties": {
        "weight": 1
      },
      "type": "Feature"
    },
    {
      "geometry": {
        "coordinates": [
          121.46400000000052,
          25.007000022716962
        ],
        "type": "Point"
      },
      "properties": {
        "weight": 1
      },
      "type": "Feature"
    },
    {
      "geometry": {
        "coordinates": [
          121.46400000000052,
          25.00690002271678
        ],
        "type": "Point"
      },
      "properties": {
        "weight": 1
      },
      "type": "Feature"
    },
    {
      "geometry": {
        "coordinates": [
          121.46500000000053,
          25.011100022724712
        ],
        "type": "Point"
      },
      "properties": {
        "weight": 1
      },
      "type": "Feature"
    },
    {
      "geometry": {
        "coordinates": [
          121.46500000000053,
          25.010900022724336
        ],
        "type": "Point"
      },
      "properties": {
        "weight": 1
      },
      "type": "Feature"
    },
    {
      "geometry": {
        "coordinates": [
          121.46600000000052,
          25.012000022726426
        ],
        "type": "Point"
      },
      "properties": {
        "weight": 1
      },
      "type": "Feature"
    },
    {
      "geometry": {
        "coordinates": [
          121.46600000000052,
          25.011900022726227
        ],
        "type": "Point"
      },
      "properties": {
        "weight": 1
      },
      "type": "Feature"
    },
    {
      "geometry": {
        "coordinates": [
          121.46600000000052,
          25.0113000227251
        ],
        "type": "Point"
      },
      "properties": {
        "weight": 1
      },
      "type": "Feature"
    },
    {
      "geometry": {
        "coordinates": [
          121.46600000000052,
          25.011200022724907
        ],
        "type": "Point"
      },
      "properties": {
        "weight": 1
      },
      "type": "Feature"
    },
    {
      "geometry": {
        "coordinates": [
          121.46600000000052,
          25.011100022724712
        ],
        "type": "Point"
      },
      "properties": {
        "weight": 1
      },
      "type": "Feature"
    },
    {
      "geometry": {
        "coordinates": [
          121.46600000000052,
          25.011000022724534
        ],
        "type": "Point"
      },
      "properties": {
        "weight": 1
      },
      "type": "Feature"
    },
    {
      "geometry": {
        "coordinates": [
          121.46600000000052,
          25.004700022712633
        ],
        "type": "Point"
      },
      "properties": {
        "weight": 1
      },
      "type": "Feature"
    },
    {
      "geometry": {
        "coordinates": [
          121.46700000000057,
          25.01190002272624
        ],
        "type": "Point"
      },
      "properties": {
        "weight": 1
      },
      "type": "Feature"
    },
    {
      "geometry": {
        "coordinates": [
          121.46700000000057,
          25.011800022726046
        ],
        "type": "Point"
      },
      "properties": {
        "weight": 1
      },
      "type": "Feature"
    },
    {
      "geometry": {
        "coordinates": [
          121.46700000000057,
          25.011700022725844
        ],
        "type": "Point"
      },
      "properties": {
        "weight": 1
      },
      "type": "Feature"
    },
    {
      "geometry": {
        "coordinates": [
          121.46700000000052,
          25.00980002272226
        ],
        "type": "Point"
      },
      "properties": {
        "weight": 1
      },
      "type": "Feature"
    },
    {
      "geometry": {
        "coordinates": [
          121.46700000000052,
          25.00970002272208
        ],
        "type": "Point"
      },
      "properties": {
        "weight": 1
      },
      "type": "Feature"
    },
    {
      "geometry": {
        "coordinates": [
          121.46700000000052,
          25.00890002272056
        ],
        "type": "Point"
      },
      "properties": {
        "weight": 1
      },
      "type": "Feature"
    },
    {
      "geometry": {
        "coordinates": [
          121.46700000000052,
          25.006800022716597
        ],
        "type": "Point"
      },
      "properties": {
        "weight": 1
      },
      "type": "Feature"
    },
    {
      "geometry": {
        "coordinates": [
          121.46700000000052,
          25.00660002271622
        ],
        "type": "Point"
      },
      "properties": {
        "weight": 1
      },
      "type": "Feature"
    },
    {
      "geometry": {
        "coordinates": [
          121.46800000000057,
          25.020800022743057
        ],
        "type": "Point"
      },
      "properties": {
        "weight": 1
      },
      "type": "Feature"
    },
    {
      "geometry": {
        "coordinates": [
          121.46800000000054,
          25.007300022717533
        ],
        "type": "Point"
      },
      "properties": {
        "weight": 1
      },
      "type": "Feature"
    },
    {
      "geometry": {
        "coordinates": [
          121.46800000000054,
          25.007200022717342
        ],
        "type": "Point"
      },
      "properties": {
        "weight": 1
      },
      "type": "Feature"
    },
    {
      "geometry": {
        "coordinates": [
          121.46800000000054,
          25.007100022717164
        ],
        "type": "Point"
      },
      "properties": {
        "weight": 1
      },
      "type": "Feature"
    },
    {
      "geometry": {
        "coordinates": [
          121.46800000000054,
          25.007000022716962
        ],
        "type": "Point"
      },
      "properties": {
        "weight": 1
      },
      "type": "Feature"
    },
    {
      "geometry": {
        "coordinates": [
          121.46800000000054,
          25.00690002271679
        ],
        "type": "Point"
      },
      "properties": {
        "weight": 1
      },
      "type": "Feature"
    },
    {
      "geometry": {
        "coordinates": [
          121.46800000000054,
          25.006800022716597
        ],
        "type": "Point"
      },
      "properties": {
        "weight": 1
      },
      "type": "Feature"
    },
    {
      "geometry": {
        "coordinates": [
          121.46800000000054,
          25.006700022716405
        ],
        "type": "Point"
      },
      "properties": {
        "weight": 1
      },
      "type": "Feature"
    },
    {
      "geometry": {
        "coordinates": [
          121.46800000000054,
          25.006600022716214
        ],
        "type": "Point"
      },
      "properties": {
        "weight": 1
      },
      "type": "Feature"
    },
    {
      "geometry": {
        "coordinates": [
          121.46900000000055,
          25.007300022717533
        ],
        "type": "Point"
      },
      "properties": {
        "weight": 1
      },
      "type": "Feature"
    },
    {
      "geometry": {
        "coordinates": [
          121.46900000000055,
          25.006900022716795
        ],
        "type": "Point"
      },
      "properties": {
        "weight": 1
      },
      "type": "Feature"
    },
    {
      "geometry": {
        "coordinates": [
          121.46900000000055,
          25.006400022715837
        ],
        "type": "Point"
      },
      "properties": {
        "weight": 1
      },
      "type": "Feature"
    },
    {
      "geometry": {
        "coordinates": [
          121.46900000000055,
          25.00630002271565
        ],
        "type": "Point"
      },
      "properties": {
        "weight": 1
      },
      "type": "Feature"
    },
    {
      "geometry": {
        "coordinates": [
          121.47000000000055,
          25.01650002273493
        ],
        "type": "Point"
      },
      "properties": {
        "weight": 1
      },
      "type": "Feature"
    },
    {
      "geometry": {
        "coordinates": [
          121.47000000000055,
          25.015600022733224
        ],
        "type": "Point"
      },
      "properties": {
        "weight": 1
      },
      "type": "Feature"
    },
    {
      "geometry": {
        "coordinates": [
          121.47000000000055,
          25.00810002271904
        ],
        "type": "Point"
      },
      "properties": {
        "weight": 1
      },
      "type": "Feature"
    },
    {
      "geometry": {
        "coordinates": [
          121.47000000000055,
          25.006100022715273
        ],
        "type": "Point"
      },
      "properties": {
        "weight": 1
      },
      "type": "Feature"
    },
    {
      "geometry": {
        "coordinates": [
          121.47100000000056,
          25.01460002273133
        ],
        "type": "Point"
      },
      "properties": {
        "weight": 1
      },
      "type": "Feature"
    },
    {
      "geometry": {
        "coordinates": [
          121.47100000000056,
          25.00620002271546
        ],
        "type": "Point"
      },
      "properties": {
        "weight": 1
      },
      "type": "Feature"
    },
    {
      "geometry": {
        "coordinates": [
          121.47100000000056,
          25.006100022715277
        ],
        "type": "Point"
      },
      "properties": {
        "weight": 1
      },
      "type": "Feature"
    },
    {
      "geometry": {
        "coordinates": [
          121.47100000000056,
          25.00590002271489
        ],
        "type": "Point"
      },
      "properties": {
        "weight": 1
      },
      "type": "Feature"
    },
    {
      "geometry": {
        "coordinates": [
          121.47200000000055,
          25.01920002274002
        ],
        "type": "Point"
      },
      "properties": {
        "weight": 1
      },
      "type": "Feature"
    },
    {
      "geometry": {
        "coordinates": [
          121.47200000000055,
          25.01910002273984
        ],
        "type": "Point"
      },
      "properties": {
        "weight": 1
      },
      "type": "Feature"
    },
    {
      "geometry": {
        "coordinates": [
          121.47200000000055,
          25.01870002273908
        ],
        "type": "Point"
      },
      "properties": {
        "weight": 1
      },
      "type": "Feature"
    },
    {
      "geometry": {
        "coordinates": [
          121.47300000000057,
          25.01790002273757
        ],
        "type": "Point"
      },
      "properties": {
        "weight": 1
      },
      "type": "Feature"
    },
    {
      "geometry": {
        "coordinates": [
          121.47300000000057,
          25.016400022734743
        ],
        "type": "Point"
      },
      "properties": {
        "weight": 1
      },
      "type": "Feature"
    },
    {
      "geometry": {
        "coordinates": [
          121.47300000000057,
          25.016300022734544
        ],
        "type": "Point"
      },
      "properties": {
        "weight": 1
      },
      "type": "Feature"
    },
    {
      "geometry": {
        "coordinates": [
          121.47300000000057,
          25.009300022721316
        ],
        "type": "Point"
      },
      "properties": {
        "weight": 1
      },
      "type": "Feature"
    },
    {
      "geometry": {
        "coordinates": [
          121.47300000000057,
          25.00780002271849
        ],
        "type": "Point"
      },
      "properties": {
        "weight": 1
      },
      "type": "Feature"
    },
    {
      "geometry": {
        "coordinates": [
          121.47300000000057,
          25.007700022718293
        ],
        "type": "Point"
      },
      "properties": {
        "weight": 1
      },
      "type": "Feature"
    },
    {
      "geometry": {
        "coordinates": [
          121.47400000000057,
          25.0167000227353
        ],
        "type": "Point"
      },
      "properties": {
        "weight": 1
      },
      "type": "Feature"
    },
    {
      "geometry": {
        "coordinates": [
          121.47400000000057,
          25.0166000227351
        ],
        "type": "Point"
      },
      "properties": {
        "weight": 1
      },
      "type": "Feature"
    },
    {
      "geometry": {
        "coordinates": [
          121.47400000000057,
          25.016400022734743
        ],
        "type": "Point"
      },
      "properties": {
        "weight": 1
      },
      "type": "Feature"
    },
    {
      "geometry": {
        "coordinates": [
          121.47400000000057,
          25.01400002273019
        ],
        "type": "Point"
      },
      "properties": {
        "weight": 1
      },
      "type": "Feature"
    },
    {
      "geometry": {
        "coordinates": [
          121.47400000000057,
          25.008200022719226
        ],
        "type": "Point"
      },
      "properties": {
        "weight": 1
      },
      "type": "Feature"
    },
    {
      "geometry": {
        "coordinates": [
          121.47500000000056,
          25.011400022725276
        ],
        "type": "Point"
      },
      "properties": {
        "weight": 1
      },
      "type": "Feature"
    }
  ],
  "type": "FeatureCollection"
}
