{"type":"FeatureCollection","features":[{"type":"Feature","properties":{"name":"rent_heatmap_bounds","remark":"租屋熱力圖範圍（EPSG:3826→WGS84）"},"geometry":{"type":"Polygon","coordinates":[[[121.52985614710825,24.967942831260086],[121.53034215416116,24.96795197585624],[121.53082708373066,24.967982846161153],[121.53130976783324,24.968035367817187],[121.53178904389048,24.968109414317937],[121.53226375752763,24.968204807312784],[121.53273276535234,24.96832131703599],[121.53319493770665,24.96845866286],[121.53364916138656,24.968616513970893],[121.53409434232137,24.968794490164747],[121.53452940820839,24.968992162762763],[121.5349533110934,24.969209055643528],[121.53536502989489,24.969444646388762],[121.53576357286154,24.96969836754119],[121.53614797996114,24.969969607970654],[121.53651732519207,24.970257714345106],[121.5368707188134,24.970561992703956],[121.53720730948832,24.970881710128218],[121.53752628633471,24.971216096505533],[121.53782688087841,24.971564346383943],[121.53810836890518,24.971925620911612],[121.53837007220591,24.972299049856417],[121.53861136021098,24.972683733701125],[121.53883165151058,24.973078745809946],[121.53903041525669,24.973483134659205],[121.539207172443,24.973895926129448],[121.53936149706084,24.974316125850667],[121.53949301712696,24.97474272159747],[121.53960141558188,24.975174685726813],[121.53968643105557,24.975610977653155],[121.53974785849948,24.9760505463546],[121.53978554968273,24.976492332904492],[121.5397994135514,24.97693527302245],[121.53978941645097,24.977378299637724],[121.5397555822089,24.977820345459932],[121.53969799208059,24.978260345550396],[121.53961678455558,24.978697239887406],[121.53951215502634,24.97912997592046],[121.53938435532012,24.979557511106297],[121.5392336930943,24.979978815420623],[121.53906053109759,24.980392873840245],[121.53886528629798,24.980798688788735],[121.53864842888024,24.981195282540973],[121.53841048111471,24.98158169957854],[121.53815201610088,24.981957008893318],[121.537873656388,24.982320306230545],[121.5375760724762,24.982670716268796],[121.53725998120237,24.983007394729512],[121.53692614401392,24.98332953041182],[121.53657536513434,24.98363634714814],[121.53620848962652,24.98392710567528],[121.5358264013568,24.984201105416005],[121.53543002086496,24.984457686168213],[121.5350203031462,24.984696229696564],[121.53459823535009,24.984916161222717],[121.53416483440071,24.985116950811094],[121.53372114454639,24.985298114646785],[121.5332682348418,24.985459216201523],[121.53280719657164,24.98559986728666],[121.5323391406194,24.985719728988787],[121.53186519478932,24.98581851248714],[121.53138650108708,24.985895979749767],[121.53090421296692,24.9859519441078],[121.53041949255024,24.985986270705197],[121.52993350782349,24.985998876824354],[121.52944742982214,24.98598973208513],[121.52896242980707,24.985958858518668],[121.5284796764402,24.98590633051378],[121.52800033296711,24.985832274638078],[121.52752555441168,24.98573686933247],[121.5270564847915,24.985620344481266],[121.52659425435967,24.985482980857675],[121.5261399768795,24.985325109447107],[121.5256947469398,24.985147110648914],[121.52525963731524,24.984949413359622],[121.5248356963812,24.984732493938417],[121.52442394558571,24.984496875059193],[121.5240253769881,24.984243124450167],[121.52364095086752,24.983971853525166],[121.52327159340871,24.983683715909855],[121.52291819447035,24.98337940586596],[121.52258160544054,24.98305965661732],[121.52226263718549,24.982725238582905],[121.52196205809662,24.982376957519513],[121.52168059223936,24.982015652579317],[121.5214189176093,24.981642194287346],[121.52117766449993,24.98125748244346],[121.520957413985,24.980862443953086],[121.52075869651976,24.980458030593983],[121.52058199066482,24.9800452167216],[121.52042772193452,24.979624996921753],[121.52029626177385,24.97919838361316],[121.52018792666534,24.978766404608017],[121.52010297736904,24.978330100635116],[121.52004161829609,24.977890522832382],[121.52000399701897,24.97744873021409],[121.51999020391834,24.977005787119094],[121.52000027196725,24.976562760646804],[121.52003417665489,24.976120718086218],[121.52009183604746,24.975680724344624],[121.52017311098832,24.97524383938257],[121.52027780543585,24.97481111566027],[121.52040566693753,24.97438359560244],[121.52055638724089,24.97396230908767],[121.52072960303784,24.97354827096775],[121.52092489684235,24.97314247862358],[121.52114179799761,24.97274590956262],[121.52137978381216,24.972359519065492],[121.52163828082001,24.971984237884698],[121.52191666616383,24.97162097000408],[121.52221426909665,24.971270590461348],[121.52253037259837,24.970933943241402],[121.52286421510381,24.97061183924424],[121.52321499233831,24.970305054332197],[121.52358185925479,24.970014327462255],[121.52396393206969,24.969740358906506],[121.52436029039204,24.96948380856682],[121.52476997944014,24.969245294385637],[121.52519201234053,24.969025390858672],[121.52562537250525,24.968824627651856],[121.52606901607867,24.968643488326034],[121.52652187445189,24.968482409173404],[121.52698285683451,24.968341778166906],[121.5274508528813,24.968221934026566],[121.52792473536496,24.96812316540403],[121.5284033628898,24.96804571018794],[121.528885582639,24.967989754931214],[121.52937023314955,24.967955434402125],[121.52985614710825,24.967942831260086]]]}}]}